0 CZ-4 DEB
1 28064U 99057ST  13282.48880534  .00013932  00000-0  25434-2 0  6946
2 28064 098.1686 286.6363 0047800 114.4666 037.5955 14.65317074532340
0 CZ-4 DEB
1 28064U 99057ST  13282.94917944  .00012500  00000-0  22833-2 0  6954
2 28064 098.1688 287.0938 0047795 113.0672 306.0897 14.65318360532416
0 CZ-4 DEB
1 28064U 99057ST  13283.68922940  .00011679  00000-0  21298-2 0  6969
2 28064 098.1689 287.8264 0047592 110.1117 250.5710 14.65319010532526
0 CZ-4 DEB
1 28064U 99057ST  13285.82914472  .00010824  00000-0  19766-2 0  6977
2 28064 098.1684 289.9557 0047743 104.3864 018.2506 14.65372679532837
0 CZ-4 DEB
1 28064U 99057ST  13286.97249639  .00010140  00000-0  18516-2 0  6984
2 28064 098.1678 291.0921 0047681 100.9764 289.6864 14.65394164533005
0 CZ-4 DEB
1 28064U 99057ST  13288.28766477  .00018050  00000-0  32828-2 0  6995
2 28064 098.1676 292.3991 0047633 097.0271 027.6465 14.65427483533198
0 CZ-4 DEB
1 28064U 99057ST  13289.52294419  .00014975  00000-0  27243-2 0  7005
2 28064 098.1673 293.6268 0047548 093.2941 064.3410 14.65462659533375
0 CZ-4 DEB
1 28064U 99057ST  13290.73271116  .00016680  00000-0  30311-2 0  7015
2 28064 098.1670 294.8291 0047456 089.6046 326.6154 14.65487459533558
0 CZ-4 DEB
1 28064U 99057ST  13291.95720061  .00012103  00000-0  22019-2 0  7021
2 28064 098.1670 296.0457 0047380 085.8730 306.6793 14.65519054533734
0 CZ-4 DEB
1 28064U 99057ST  13292.98050035  .00013860  00000-0  25185-2 0  7031
2 28064 098.1669 297.0626 0047299 082.7262 305.4507 14.65542037533889
0 CZ-4 DEB
1 28064U 99057ST  13294.50144633  .00016302  00000-0  29575-2 0  7041
2 28064 098.1673 298.5738 0047216 078.1912 049.7448 14.65574033534103
0 CZ-4 DEB
1 28064U 99057ST  13295.52533792  .00016837  00000-0  30524-2 0  7052
2 28064 098.1676 299.5917 0047121 075.0966 051.7978 14.65601188534255
